NORAD_CAT_ID,OBJECT_NAME,OBJECT_TYPE,EPOCH,MEAN_MOTION,ECCENTRICITY,INCLINATION,RA_OF_ASC_NODE,ARG_OF_PERICENTER,MEAN_ANOMALY,BSTAR,MEAN_MOTION_DOT,MEAN_MOTION_DDOT,TLE_LINE0,TLE_LINE1,TLE_LINE2,SEMIMAJOR_AXIS,PERIOD,APOGEE,PERIGEE,DECAYED
52697.0,STARLINK-4018,PAYLOAD,2022-06-28 22:00:00,15.591669400000002,0.0001347,53.2175,92.8752,43.5624,2.5129,-0.014685,-0.01065394,0.0,0 STARLINK-4018,1 52697U 22053AT  22179.91667824 -.01065394  00000-0 -14685-1 0  9990,2 52697  53.2175  92.8752 0001347  43.5624   2.5129 15.59166940  1305,6768.204000000002,92.357,390.981,389.157,0.0
52697.0,STARLINK-4018,PAYLOAD,2022-06-29 14:00:01,15.5764432,0.0001495,53.2174,89.652,47.4245,140.9904,-0.015454,-0.01058799,0.0,0 STARLINK-4018,1 52697U 22053AT  22180.58334491 -.01058799  00000-0 -15454-1 0  9992,2 52697  53.2174  89.6520 0001495  47.4245 140.9904 15.57644320  6952,6772.614000000001,92.447,395.491,393.466,0.0
52697.0,STARLINK-4018,PAYLOAD,2022-06-29 22:00:00,15.56885596,0.0001450999999999,53.2177,88.0449,50.1299,208.0569,-0.015919,-0.01059803,0.0,0 STARLINK-4018,1 52697U 22053AT  22180.91667824 -.01059803  00000-0 -15919-1 0  9991,2 52697  53.2177  88.0449 0001451  50.1299 208.0569 15.56885596  1308,6774.814,92.492,397.662,395.696,0.0
52697.0,STARLINK-4018,PAYLOAD,2022-06-30 14:00:01,15.55365864,0.0001408,53.2174,84.8326,38.804,356.1921,-0.016837,-0.01059118,0.0,0 STARLINK-4018,1 52697U 22053AT  22181.58334491 -.01059118  00000-0 -16837-1 0  9995,2 52697  53.2174  84.8326 0001408  38.8040 356.1921 15.55365864  1309,6779.226,92.583,402.046,400.137,0.0
52697.0,STARLINK-4018,PAYLOAD,2022-06-30 22:00:00,15.54607144,0.0001621,53.2176,83.2311,39.7683,62.2615,-0.017327,-0.01059755,0.0,0 STARLINK-4018,1 52697U 22053AT  22181.91667824 -.01059755  00000-0 -17327-1 0  9993,2 52697  53.2176  83.2311 0001621  39.7683  62.2615 15.54607144  7151,6781.432,92.628,404.396,402.198,0.0
52697.0,STARLINK-4018,PAYLOAD,2022-07-01 14:00:01,15.53087503,0.000143,53.2173,80.0297,51.9848,181.3779,-0.01829,-0.01058077,0.0,0 STARLINK-4018,1 52697U 22053AT  22182.58334491 -.01058077  00000-0 -18290-1 0  9994,2 52697  53.2173  80.0297 0001430  51.9848 181.3779 15.53087503  1308,6785.855,92.719,408.69,406.749,0.0
52697.0,STARLINK-4018,PAYLOAD,2022-07-01 20:00:01,15.52517824,0.0001728,53.2176,78.8324,41.0861,150.5844,-0.018668,-0.01057885,0.0,0 STARLINK-4018,1 52697U 22053AT  22182.83334491 -.01057885  00000-0 -18668-1 0  9997,2 52697  53.2176  78.8324 0001728  41.0861 150.5844 15.52517824  7302,6787.515,92.753,410.55300000000005,408.207,0.0
52697.0,STARLINK-4018,PAYLOAD,2022-07-01 22:00:00,15.52328546,0.0001582,53.2174,78.4339,39.4775,258.181,-0.018812,-0.01058626,0.0,0 STARLINK-4018,1 52697U 22053AT  22182.91667824 -.01058626  00000-0 -18812-1 0  9990,2 52697  53.2174  78.4339 0001582  39.4775 258.1810 15.52328546  1308,6788.066,92.764,411.005,408.857,0.0
52697.0,STARLINK-4018,PAYLOAD,2022-07-02 12:00:00,15.50972942,0.0001314,53.2175,75.6414,56.8991,261.0902,-0.018603,-0.01002082,0.0,0 STARLINK-4018,1 52697U 22053AT  22183.50001157 -.01002082  00000-0 -18603-1 0  9990,2 52697  53.2175  75.6414 0001314  56.8991 261.0902 15.50972942  7403,6792.021,92.845,414.779,412.994,0.0
52697.0,STARLINK-4018,PAYLOAD,2022-07-02 14:00:01,15.50724229,0.0001318,53.2173,75.2424,54.0022,9.5307,-0.015635,-0.00836159,0.0,0 STARLINK-4018,1 52697U 22053AT  22183.58334491 -.00836159  00000-0 -15635-1 0  9999,2 52697  53.2173  75.2424 0001318  54.0022   9.5307 15.50724229  1307,6792.746999999999,92.86,415.508,413.717,0.0
52697.0,STARLINK-4018,PAYLOAD,2022-07-02 22:00:00,15.50003555,0.0001551999999999,53.2174,73.6506,45.7711,79.3257,-0.0032565,-0.00181817,0.0,0 STARLINK-4018,1 52697U 22053AT  22183.91667824 -.00181817  00000-0 -32565-2 0  9991,2 52697  53.2174  73.6506 0001552  45.7711  79.3257 15.50003555  7467,6794.853,92.903,417.772,415.663,0.0
52697.0,STARLINK-4018,PAYLOAD,2022-07-03 14:00:01,15.49882414,0.0001781999999999,53.2167,70.4531,55.3875,191.7011,0.00089485,0.00050661,0.0,0 STARLINK-4018,1 52697U 22053AT  22184.58334491  .00050661  00000-0  89485-3 0  9990,2 52697  53.2167  70.4531 0001782  55.3875 191.7011 15.49882414  1306,6795.206999999999,92.91,418.283,415.861,0.0
52697.0,STARLINK-4018,PAYLOAD,2022-07-03 22:00:00,15.49913922,0.000186,53.2165,68.8618,50.5937,257.409,-0.0020078,-0.00112899,0.0,0 STARLINK-4018,1 52697U 22053AT  22184.91667824 -.00112899  00000-0 -20078-2 0  9992,2 52697  53.2165  68.8618 0001860  50.5937 257.4090 15.49913922  7621,6795.115,92.908,418.244,415.716,0.0
52697.0,STARLINK-4018,PAYLOAD,2022-07-04 14:00:01,15.49823823,0.0001573,53.2164,65.6762,54.4467,15.3195,0.00086166,0.00048651,0.0,0 STARLINK-4018,1 52697U 22053AT  22185.58334491  .00048651  00000-0  86166-3 0  9990,2 52697  53.2164  65.6762 0001573  54.4467  15.3195 15.49823823  1303,6795.378000000002,92.914,418.312,416.174,0.0
52697.0,STARLINK-4018,PAYLOAD,2022-07-04 22:00:00,15.49981471,0.0001723,53.2171,64.0894,48.1958,82.4145,-0.0065638,-0.0035772,0.0,0 STARLINK-4018,1 52697U 22053AT  22185.91667824 -.00357720  00000-0 -65638-2 0  9998,2 52697  53.2171  64.0894 0001723  48.1958  82.4145 15.49981471  1306,6794.917,92.904,417.953,415.611,0.0
52697.0,STARLINK-4018,PAYLOAD,2022-07-05 14:00:01,15.49058087,0.0001482,53.2172,60.911,49.5912,202.2669,-0.021139,-0.01058017,0.0,0 STARLINK-4018,1 52697U 22053AT  22186.58334491 -.01058017  00000-0 -21139-1 0  9998,2 52697  53.2172  60.9110 0001482  49.5912 202.2669 15.49058087  1301,6797.6169999999975,92.96,420.49,418.475,0.0
52697.0,STARLINK-4018,PAYLOAD,2022-07-05 22:00:00,15.48299442,0.0001651,53.2172,59.3253,36.7398,274.5714,-0.021732,-0.01058903,0.0,0 STARLINK-4018,1 52697U 22053AT  22186.91667824 -.01058903  00000-0 -21732-1 0  9997,2 52697  53.2172  59.3253 0001651  36.7398 274.5714 15.48299442  1309,6799.8380000000025,93.005,422.825,420.58,0.0
52697.0,STARLINK-4018,PAYLOAD,2022-07-06 06:00:00,15.47540823,0.0001174,53.2173,57.7392,57.5966,312.2567,-0.022343,-0.01059817,0.0,0 STARLINK-4018,1 52697U 22053AT  22187.25001157 -.01059817  00000-0 -22343-1 0  9990,2 52697  53.2173  57.7392 0001174  57.5966 312.2567 15.47540823  7985,6802.06,93.051,424.723,423.126,0.0
52697.0,STARLINK-4018,PAYLOAD,2022-07-06 14:00:01,15.46779024,0.0001499,53.2174,56.1535,42.2959,25.1886,-0.022867,-0.01056604,0.0,0 STARLINK-4018,1 52697U 22053AT  22187.58334491 -.01056604  00000-0 -22867-1 0  9998,2 52697  53.2174  56.1535 0001499  42.2959  25.1886 15.46779024  1301,6804.293000000002,93.097,427.17800000000005,425.138,0.0
52697.0,STARLINK-4018,PAYLOAD,2022-07-06 21:28:53,15.47654535,0.0001459,53.2188,54.6621,83.5115,276.606,-0.0045035,-0.00229967,0.0,0 STARLINK-4018,1 52697U 22053AT  22187.89506611 -.00229967  00000-0 -45035-2 0  9993,2 52697  53.2188  54.6621 0001459  83.5115 276.6060 15.47654535  8497,6801.726,93.044,424.584,422.599,0.0
52697.0,STARLINK-4018,PAYLOAD,2022-07-07 14:00:01,15.44500982,0.0001681,53.2175,51.4125,42.7363,192.1599,-0.024728,-0.0105619,0.0,0 STARLINK-4018,1 52697U 22053AT  22188.58334491 -.01056190  00000-0 -24728-1 0  9997,2 52697  53.2175  51.4125 0001681  42.7363 192.1599 15.44500982  1301,6810.982,93.234,433.992,431.702,0.0
52697.0,STARLINK-4018,PAYLOAD,2022-07-07 22:00:00,15.43741823,0.00017,53.2175,49.8378,39.0703,249.8034,-0.025393,-0.01056753,0.0,0 STARLINK-4018,1 52697U 22053AT  22188.91667824 -.01056753  00000-0 -25393-1 0  9997,2 52697  53.2175  49.8378 0001700  39.0703 249.8034 15.43741823  1305,6813.214,93.28,436.23800000000006,433.921,0.0
52697.0,STARLINK-4018,PAYLOAD,2022-07-08 02:59:05,15.45329295,7.209999999999999e-05,53.2166,48.8365,322.9589,37.1369,-0.0069165999999999,-0.00321885,0.0,0 STARLINK-4018,1 52697U 22053AT  22189.12436430 -.00321885  00000-0 -69166-2 0  9995,2 52697  53.2166  48.8365 0000721 322.9589  37.1369 15.45329295  8277,6808.5480000000025,93.184,430.904,429.922,0.0
52697.0,STARLINK-4018,PAYLOAD,2022-07-08 08:00:01,15.42791932,0.0001682,53.2175,47.8681,36.4022,48.6627,-0.026203,-0.01070678,0.0,0 STARLINK-4018,1 52697U 22053AT  22189.33334491 -.01070678  00000-0 -26203-1 0  9998,2 52697  53.2175  47.8681 0001682  36.4022  48.6627 15.42791932  8309,6816.011,93.337,439.022,436.729,0.0
52697.0,STARLINK-4018,PAYLOAD,2022-07-08 14:00:01,15.42220892,0.0001581,53.2175,46.6878,38.0178,356.0773,-0.026642,-0.01068026,0.0,0 STARLINK-4018,1 52697U 22053AT  22189.58334491 -.01068026  00000-0 -26642-1 0  9996,2 52697  53.2175  46.6878 0001581  38.0178 356.0773 15.42220892  1305,6817.693,93.372,440.636,438.48,0.0
52697.0,STARLINK-4018,PAYLOAD,2022-07-08 22:00:01,15.41464451,0.000183,53.2175,45.1185,34.933,50.4648,-0.027464,-0.0107297,0.0,0 STARLINK-4018,1 52697U 22053AT  22189.91668981 -.01072970  00000-0 -27464-1 0  9993,2 52697  53.2175  45.1185 0001830  34.9330  50.4648 15.41464451  1308,6819.9230000000025,93.418,443.036,440.54,0.0
52697.0,STARLINK-4018,PAYLOAD,2022-07-09 04:00:00,15.40894077,0.0001483,53.2172,43.9409,40.6852,352.4804,-0.02794,-0.01071009,0.0,0 STARLINK-4018,1 52697U 22053AT  22190.16667824 -.01071009  00000-0 -27940-1 0  9998,2 52697  53.2172  43.9409 0001483  40.6852 352.4804 15.40894077  8437,6821.606,93.452,444.483,442.46,0.0
52697.0,STARLINK-4018,PAYLOAD,2022-07-09 14:00:01,15.39943475,0.0001754,53.2176,41.9795,43.043,142.0356,-0.028765,-0.01068562,0.0,0 STARLINK-4018,1 52697U 22053AT  22190.58334491 -.01068562  00000-0 -28765-1 0  9991,2 52697  53.2176  41.9795 0001754  43.0430 142.0356 15.39943475  1306,6824.413000000001,93.51,447.475,445.081,0.0
52697.0,STARLINK-4018,PAYLOAD,2022-07-09 20:00:01,15.39373197,0.000194,53.2174,40.8064,35.0531,96.4879,-0.02931,-0.01068488,0.0,0 STARLINK-4018,1 52697U 22053AT  22190.83334491 -.01068488  00000-0 -29310-1 0  9993,2 52697  53.2174  40.8064 0001940  35.0531  96.4879 15.39373197  8533,6826.099,93.545,449.288,446.639,0.0
